{
  "venues": [
    {
      "name": "Amerant Bank Arena",
      "id": 1,
      "address": "1 Panther Pkwy, Sunrise, FL 33323, USA",
      "place_name": "Florida",
      "place_id": "ChIJLTGXWhoJ2YgRrlDpr7m7cjI",
      "location": {
        "latitude": 26.158495799999997,
        "longitude": -80.3255204
      }
    },
    {
      "name": "Madison Square Garden",
      "id": 2,
      "address": "New York, NY 10001, USA",
      "place_name": "New York",
      "place_id": "ChIJhRwB-yFawokR5Phil-QQ3zM",
      "location": {
        "latitude": 40.7505045,
        "longitude": -73.9934387
      }
    },
    {
      "name": "Crypto.com Arena",
      "id": 3,
      "address": "1111 S Figueroa St, Los Angeles, CA 90015, USA",
      "place_name": "Los Angeles",
      "place_id": "ChIJkyrqXbjHwoAR1bJ76zx89B8",
      "location": {
        "latitude": 34.0430175,
        "longitude": -118.2672541
      }
    },
    {
      "name": "Scotiabank Arena",
      "id": 4,
      "address": "40 Bay St., Toronto, ON M5J 3A5, Canada",
      "place_name": "Toronto",
      "place_id": "ChIJCb81WSvL1IkREJRm1efQQlg",
      "location": {
        "latitude": 43.6434661,
        "longitude": -79.3790989
      }
    },
    {
      "name": "Capital One Arena",
      "id": 5,
      "address": "601 F St NW, Washington, DC 20004, USA",
      "place_name": "Washington",
      "place_id": "ChIJc2hfT463t4kREfcRHtsEzHU",
      "location": {
        "latitude": 38.8981675,
        "longitude": -77.02085679999999
      }
    },
    {
      "name": "Rogers Place",
      "id": 6,
      "address": "10220 104 Ave NW, Edmonton, AB T5J 0H6, Canada",
      "place_name": "Edmonton",
      "place_id": "ChIJFSwFuE4ioFMR2NTorORY7D8",
      "location": {
        "latitude": 53.546975499999995,
        "longitude": -113.49780039999999
      }
    },
    {
      "name": "T-Mobile Arena",
      "id": 7,
      "address": "The Park Vegas, 3780 S Las Vegas Blvd, Las Vegas, NV 89109, USA",
      "place_name": "Vegas",
      "place_id": "ChIJgfGIIzPEyIARZ3fvsbx2ce0",
      "location": {
        "latitude": 36.102812,
        "longitude": -115.178195
      }
    },
    {
      "name": "TD Garden",
      "id": 8,
      "address": "100 Legends Way, Boston, MA 02114, USA",
      "place_name": "Boston",
      "place_id": "ChIJywUtFo5w44kRqJfXXv410zI",
      "location": {
        "latitude": 42.366198,
        "longitude": -71.062146
      }
    },
    {
      "name": "KeyBank Center",
      "id": 9,
      "address": "1 Seymour H Knox III Plaza, Buffalo, NY 14203, USA",
      "place_name": "Buffalo",
      "place_id": "ChIJ7yDMhTYS04kRG3n5C7T1oWY",
      "location": {
        "latitude": 42.875081099999996,
        "longitude": -78.8765439
      }
    },
    {
      "name": "Little Caesars Arena",
      "id": 10,
      "address": "2645 Woodward Ave, Detroit, MI 48201, USA",
      "place_name": "Detroit",
      "place_id": "ChIJCxS_IcvSJIgReEafl2DYD8s",
      "location": {
        "latitude": 42.341795999999995,
        "longitude": -83.05466109999999
      }
    },
    {
      "name": "Benchmark International Arena",
      "id": 11,
      "address": "401 Channelside Dr, Tampa, FL 33602, USA",
      "place_name": "Tampa Bay",
      "place_id": "ChIJSV2_Mo3EwogRc8CZwwOroSs",
      "location": {
        "latitude": 27.942737299999997,
        "longitude": -82.4517771
      }
    },
    {
      "name": "PPG Paints Arena",
      "id": 12,
      "address": "1001 Fifth Ave, Pittsburgh, PA 15219, USA",
      "place_name": "Pittsburgh",
      "place_id": "ChIJq6qqjl7xNIgR_sVp8tsfGxw",
      "location": {
        "latitude": 40.439309699999995,
        "longitude": -79.98955289999999
      }
    },
    {
      "name": "Lenovo Center",
      "id": 13,
      "address": "1400 Edwards Mill Rd, Raleigh, NC 27607, USA",
      "place_name": "Carolina",
      "place_id": "ChIJB32gSzz0rIkR0QTxBXLB0hs",
      "location": {
        "latitude": 35.803291,
        "longitude": -78.72169920000002
      }
    },
    {
      "name": "Enterprise Center",
      "id": 14,
      "address": "1401 Clark Ave, St. Louis, MO 63103, USA",
      "place_name": "St. Louis",
      "place_id": "ChIJ_Z8_8xOz2IcRIZr4kOGS0BY",
      "location": {
        "latitude": 38.6268402,
        "longitude": -90.20267830000002
      }
    },
    {
      "name": "Bridgestone Arena",
      "id": 15,
      "address": "501 Broadway, Nashville, TN 37203, USA",
      "place_name": "Nashville",
      "place_id": "ChIJR2SNw15mZIgREmY_zX5TAKk",
      "location": {
        "latitude": 36.159173599999995,
        "longitude": -86.7784959
      }
    },
    {
      "name": "Canada Life Centre",
      "id": 16,
      "address": "300 Portage Ave, Winnipeg, MB R3C 5S4, Canada",
      "place_name": "Winnipeg",
      "place_id": "ChIJj4Bko1lx6lIRMC87jjR1WuQ",
      "location": {
        "latitude": 49.892652899999995,
        "longitude": -97.1434647
      }
    },
    {
      "name": "Ball Arena",
      "id": 17,
      "address": "1000 Chopper Cir, Denver, CO 80204, USA",
      "place_name": "Colorado",
      "place_id": "ChIJd3toZrh4bIcRhnfUNzcn7Hs",
      "location": {
        "latitude": 39.7486519,
        "longitude": -105.0075988
      }
    },
    {
      "name": "Rogers Arena",
      "id": 18,
      "address": "800 Griffiths Wy, Vancouver, BC V6B 6G1, Canada",
      "place_name": "Vancouver",
      "place_id": "ChIJK7VbnXxxhlQRCbKQyeRwBJ4",
      "location": {
        "latitude": 49.2778358,
        "longitude": -123.10882269999999
      }
    },
    {
      "name": "SAP Center at San Jose",
      "id": 19,
      "address": "525 W Santa Clara St, San Jose, CA 95113, USA",
      "place_name": "San Jose",
      "place_id": "ChIJq56TmaDMj4ARJJCpWy9v-i0",
      "location": {
        "latitude": 37.332968799999996,
        "longitude": -121.90200060000001
      }
    },
    {
      "name": "Climate Pledge Arena",
      "id": 20,
      "address": "334 1st Ave N, Seattle, WA 98109, USA",
      "place_name": "Seattle",
      "place_id": "ChIJ046-cUQVkFQRJy7KU2evBN4",
      "location": {
        "latitude": 47.622071299999995,
        "longitude": -122.35407140000001
      }
    },
    {
      "name": "Scotiabank Saddledome",
      "id": 21,
      "address": "555 Saddledome Rise SE, Calgary, AB T2G 2W1, Canada",
      "place_name": "Calgary",
      "place_id": "ChIJg-5B9QZwcVMRjk1pPV9hp3U",
      "location": {
        "latitude": 51.0374336,
        "longitude": -114.0519341
      }
    },
    {
      "name": "UBS Arena",
      "id": 22,
      "address": "2400 Hempstead Turnpike, Elmont, NY 11003, USA",
      "place_name": "New York",
      "place_id": "ChIJcaJhmD9jwokRWpS--yRDv74",
      "location": {
        "latitude": 40.711790099999995,
        "longitude": -73.7260398
      }
    },
    {
      "name": "United Center",
      "id": 23,
      "address": "1901 W Madison St, Chicago, IL 60612, USA",
      "place_name": "Chicago",
      "place_id": "ChIJT7Wpyj4tDogRRAPwjAbwk5s",
      "location": {
        "latitude": 41.880690799999996,
        "longitude": -87.6741759
      }
    },
    {
      "name": "Grand Casino Arena",
      "id": 24,
      "address": "199 W Kellogg Blvd, St Paul, MN 55102, USA",
      "place_name": "Minnesota",
      "place_id": "ChIJKWoZQy0rs1IRtRUkSWY5e18",
      "location": {
        "latitude": 44.9448133,
        "longitude": -93.10111739999999
      }
    },
    {
      "name": "Canadian Tire Centre",
      "id": 25,
      "address": "1000 Palladium Dr, Ottawa, ON K2V 1A4, Canada",
      "place_name": "Ottawa",
      "place_id": "ChIJG5pEf4gA0kwR8RnzF8RqT6Y",
      "location": {
        "latitude": 45.2969151,
        "longitude": -75.926823
      }
    },
    {
      "name": "Xfinity Mobile Arena",
      "id": 26,
      "address": "3601 S Broad St, Philadelphia, PA 19148, USA",
      "place_name": "Philadelphia",
      "place_id": "ChIJR7HjD-zFxokRLbpFP7Ixn1I",
      "location": {
        "latitude": 39.9012015,
        "longitude": -75.17197949999999
      }
    },
    {
      "name": "Nationwide Arena",
      "id": 27,
      "address": "200 W Nationwide Blvd, Columbus, OH 43215, USA",
      "place_name": "Columbus",
      "place_id": "ChIJ6_-8ziWPOIgRSQzt9UEhOmI",
      "location": {
        "latitude": 39.9692072,
        "longitude": -83.0060483
      }
    },
    {
      "name": "Centre Bell",
      "id": 28,
      "address": "1909 Av. des Canadiens-de-Montréal, Montréal, QC H3B 2S2, Canada",
      "place_name": "Montréal",
      "place_id": "ChIJ_zbvAmgayUwRrvfvmmsALxE",
      "location": {
        "latitude": 45.4960667,
        "longitude": -73.5693153
      }
    },
    {
      "name": "American Airlines Center",
      "id": 29,
      "address": "2500 Victory Ave, Dallas, TX 75219, USA",
      "place_name": "Dallas",
      "place_id": "ChIJr-XOXC-ZToYRow-GKE8dYSE",
      "location": {
        "latitude": 32.7903908,
        "longitude": -96.8102547
      }
    },
    {
      "name": "Honda Center",
      "id": 30,
      "address": "2695 E Katella Ave, Anaheim, CA 92806, USA",
      "place_name": "Anaheim",
      "place_id": "ChIJXyczhHXX3IARFVUqyhMqiqg",
      "location": {
        "latitude": 33.807847599999995,
        "longitude": -117.87646869999999
      }
    },
    {
      "name": "Delta Center",
      "id": 31,
      "address": "301 S Temple, Salt Lake City, UT 84101, USA",
      "place_name": "Utah",
      "place_id": "ChIJTfDrAwH1UocRILERH1NF5fA",
      "location": {
        "latitude": 40.7682681,
        "longitude": -111.9010874
      }
    },
    {
      "name": "Prudential Center",
      "id": 32,
      "address": "25 Lafayette St, Newark, NJ 07102, USA",
      "place_name": "New Jersey",
      "place_id": "ChIJ0_FwmoJTwokRrKVSVmv6Pk0",
      "location": {
        "latitude": 40.733537,
        "longitude": -74.1710659
      }
    },
    {
      "name": "LoanDepot Park",
      "id": 33,
      "address": "501 Marlins Way, Miami, FL 33125, USA",
      "place_name": "Florida",
      "place_id": "ChIJT6FDlOi22YgRho4_rKhVv3c",
      "location": {
        "latitude": 25.7781487,
        "longitude": -80.2195998
      }
    },
    {
      "name": "Raymond James Stadium",
      "id": 34,
      "address": "4201 N Dale Mabry Hwy, Tampa, FL 33607, USA",
      "place_name": "Tampa Bay",
      "place_id": "ChIJzyiU3LjDwogR3_P87TdTzcE",
      "location": {
        "latitude": 27.975869099999997,
        "longitude": -82.5033344
      }
    }
  ]
}